CCSDS_OEM_VERS = 1.0
CREATION_DATE  = 2017-05-11T11:14:44
ORIGINATOR     = GMAT USER

META_START
OBJECT_NAME          = MOPSSat_alt_35785_km_RAAN_90_059
OBJECT_ID            = SatId
CENTER_NAME          = Earth
REF_FRAME            = EME2000
TIME_SYSTEM          = UTC
START_TIME           = 2017-01-01T00:00:00.000
USEABLE_START_TIME   = 2017-01-01T00:00:00.000
USEABLE_STOP_TIME    = 2017-01-02T00:00:00.000
STOP_TIME            = 2017-01-02T00:00:00.000
INTERPOLATION        = Lagrange
INTERPOLATION_DEGREE = 7 
META_STOP


                                                                                   

2017-01-01T14:30:50.000   2.613886842885319e+04  -3.308186170306904e+04  -4.835011230962129e+00   2.412492032404527e+00   1.906417067281912e+00  -5.422759040146588e-04
2017-01-01T14:31:00.000   2.616298639596424e+04  -3.306278873756126e+04  -4.840432933661743e+00   2.411101270206245e+00   1.908175939588286e+00  -5.420646090266122e-04
2017-01-01T14:31:10.000   2.618709044929059e+04  -3.304369818820540e+04  -4.845852522026227e+00   2.409709225455436e+00   1.909933797269492e+00  -5.418530257384058e-04
2017-01-01T14:31:20.000   2.621118057598340e+04  -3.302459006517286e+04  -4.851269993166959e+00   2.408315898893676e+00   1.911690639388229e+00  -5.416411542340254e-04
2017-01-01T14:31:30.000   2.623525676321838e+04  -3.300546437863126e+04  -4.856685344199979e+00   2.406921291262269e+00   1.913446465008991e+00  -5.414289945974639e-04
2017-01-01T14:31:40.000   2.625931899812221e+04  -3.298632113880193e+04  -4.862098572229511e+00   2.405525403306433e+00   1.915201273192692e+00  -5.412165469133514e-04
2017-01-01T14:31:50.000   2.628336726780183e+04  -3.296716035593869e+04  -4.867509674354452e+00   2.404128235773758e+00   1.916955062998814e+00  -5.410038112667383e-04
2017-01-01T14:32:00.000   2.630740155935727e+04  -3.294798204031610e+04  -4.872918647671302e+00   2.402729789413346e+00   1.918707833486325e+00  -5.407907877429479e-04
2017-01-01T14:32:10.000   2.633142185991022e+04  -3.292878620220647e+04  -4.878325489280629e+00   2.401330064974138e+00   1.920459583715781e+00  -5.405774764273249e-04
2017-01-01T14:32:20.000   2.635542815661845e+04  -3.290957285187019e+04  -4.883730196290236e+00   2.399929063204206e+00   1.922210312750364e+00  -5.403638774051204e-04
2017-01-01T14:32:30.000   2.637942043670304e+04  -3.289034199953191e+04  -4.889132765821351e+00   2.398526784849011e+00   1.923960019657875e+00  -5.401499907612341e-04
2017-01-01T14:32:40.000   2.640339868737593e+04  -3.287109365543935e+04  -4.894533194992312e+00   2.397123230655704e+00   1.925708703505447e+00  -5.399358165808660e-04
2017-01-01T14:32:50.000   2.642736289615442e+04  -3.285182782960803e+04  -4.899931480989479e+00   2.395718401354501e+00   1.927456363382487e+00  -5.397213549466808e-04
2017-01-01T14:33:00.000   2.645131305047980e+04  -3.283254453213028e+04  -4.905327620981242e+00   2.394312297681222e+00   1.929202998372852e+00  -5.395066059422412e-04
2017-01-01T14:33:10.000   2.647524913786155e+04  -3.281324377305863e+04  -4.910721612150546e+00   2.392904920368785e+00   1.930948607565378e+00  -5.392915696507138e-04
2017-01-01T14:33:20.000   2.649917114531776e+04  -3.279392556285694e+04  -4.916113451568754e+00   2.391496270180099e+00   1.932693190013059e+00  -5.390762461598812e-04
2017-01-01T14:33:30.000   2.652307905993483e+04  -3.277458991194936e+04  -4.921503136321811e+00   2.390086347875184e+00   1.934436744773874e+00  -5.388606355571317e-04
2017-01-01T14:33:40.000   2.654697286872297e+04  -3.275523683083666e+04  -4.926890663477663e+00   2.388675154219644e+00   1.936179270900245e+00  -5.386447379307481e-04
2017-01-01T14:33:50.000   2.657085255899924e+04  -3.273586632978907e+04  -4.932276030172511e+00   2.387262689962269e+00   1.937920767466972e+00  -5.384285533665028e-04
2017-01-01T14:34:00.000   2.659471811807116e+04  -3.271647841909938e+04  -4.937659233539601e+00   2.385848955853504e+00   1.939661233548160e+00  -5.382120819504614e-04
2017-01-01T14:34:10.000   2.661856953330974e+04  -3.269707310902467e+04  -4.943040270725646e+00   2.384433952641186e+00   1.941400668222544e+00  -5.379953237683375e-04
2017-01-01T14:34:20.000   2.664240679212039e+04  -3.267765040980784e+04  -4.948419138884330e+00   2.383017681072118e+00   1.943139070571364e+00  -5.377782789057233e-04
2017-01-01T14:34:30.000   2.666622988193033e+04  -3.265821033168950e+04  -4.953795835173444e+00   2.381600141892936e+00   1.944876439677456e+00  -5.375609474482306e-04
2017-01-01T14:34:40.000   2.669003879016010e+04  -3.263875288493119e+04  -4.959170356748421e+00   2.380181335851806e+00   1.946612774623167e+00  -5.373433294817495e-04
2017-01-01T14:34:50.000   2.671383350420944e+04  -3.261927807982525e+04  -4.964542700759227e+00   2.378761263699140e+00   1.948348074489324e+00  -5.371254250925564e-04
2017-01-01T14:35:00.000   2.673761401143028e+04  -3.259978592671901e+04  -4.969912864344172e+00   2.377339926189356e+00   1.950082338353269e+00  -5.369072343675885e-04
2017-01-01T14:35:10.000   2.676138029919853e+04  -3.258027643595499e+04  -4.975280844646178e+00   2.375917324076529e+00   1.951815565294095e+00  -5.366887573937724e-04
2017-01-01T14:35:20.000   2.678513235460236e+04  -3.256074961812976e+04  -4.980646638742261e+00   2.374493458133255e+00   1.953547754369910e+00  -5.364699942609334e-04
2017-01-01T14:35:30.000   2.680887016482033e+04  -3.254120548378062e+04  -4.986010243729021e+00   2.373068329127809e+00   1.955278904645411e+00  -5.362509450582756e-04
2017-01-01T14:35:40.000   2.683259371698061e+04  -3.252164404350198e+04  -4.991371656690836e+00   2.371641937832634e+00   1.957009015181622e+00  -5.360316098756896e-04
2017-01-01T14:35:50.000   2.685630299870682e+04  -3.250206530749556e+04  -4.996730874823213e+00   2.370214284991535e+00   1.958738085075702e+00  -5.358119887987007e-04
2017-01-01T14:36:00.000   2.687999799757352e+04  -3.248246928601876e+04  -5.002087895309729e+00   2.368785371352382e+00   1.960466113421224e+00  -5.355920819135062e-04
2017-01-01T14:36:10.000   2.690367870122976e+04  -3.246285598928353e+04  -5.007442715349949e+00   2.367355197659728e+00   1.962193099317204e+00  -5.353718893058371e-04
2017-01-01T14:36:20.000   2.692734509709051e+04  -3.244322542770784e+04  -5.012795332089788e+00   2.365923764673155e+00   1.963919041845579e+00  -5.351514110637821e-04
2017-01-01T14:36:30.000   2.695099717256633e+04  -3.242357761172963e+04  -5.018145742673298e+00   2.364491073153694e+00   1.965643940087968e+00  -5.349306472756991e-04
2017-01-01T14:36:40.000   2.697463491506267e+04  -3.240391255180578e+04  -5.023493944242552e+00   2.363057123863762e+00   1.967367793125614e+00  -5.347095980302037e-04
2017-01-01T14:36:50.000   2.699825831175436e+04  -3.238423025860354e+04  -5.028839933886524e+00   2.361621917581120e+00   1.969090600022946e+00  -5.344882634183193e-04
2017-01-01T14:37:00.000   2.702186734989009e+04  -3.236453074274361e+04  -5.034183708710058e+00   2.360185455080128e+00   1.970812359849776e+00  -5.342666435305915e-04
2017-01-01T14:37:10.000   2.704546201667218e+04  -3.234481401490109e+04  -5.039525265806675e+00   2.358747737139117e+00   1.972533071672536e+00  -5.340447384582198e-04
2017-01-01T14:37:20.000   2.706904229978919e+04  -3.232508008536060e+04  -5.044864602379118e+00   2.357308764507949e+00   1.974252734593116e+00  -5.338225482880676e-04
2017-01-01T14:37:30.000   2.709260818688321e+04  -3.230532896446095e+04  -5.050201715618774e+00   2.355868537940430e+00   1.975971347710022e+00  -5.336000731076476e-04
2017-01-01T14:37:40.000   2.711615966567061e+04  -3.228556066249492e+04  -5.055536602732990e+00   2.354427058187019e+00   1.977688910127170e+00  -5.333773130040051e-04
2017-01-01T14:37:50.000   2.713969672363496e+04  -3.226577518996289e+04  -5.060869260875665e+00   2.352984326013309e+00   1.979405420931506e+00  -5.331542680665481e-04
2017-01-01T14:38:00.000   2.716321934825562e+04  -3.224597255738520e+04  -5.066199687198864e+00   2.351540342186349e+00   1.981120879209661e+00  -5.329309383849586e-04
2017-01-01T14:38:10.000   2.718672752700687e+04  -3.222615277530124e+04  -5.071527878852698e+00   2.350095107474579e+00   1.982835284047905e+00  -5.327073240491739e-04
2017-01-01T14:38:20.000   2.721022124713388e+04  -3.220631585446221e+04  -5.076853832934388e+00   2.348648622661883e+00   1.984548634515788e+00  -5.324834251515852e-04
2017-01-01T14:38:30.000   2.723370049595526e+04  -3.218646180557230e+04  -5.082177546556992e+00   2.347200888528721e+00   1.986260929688226e+00  -5.322592417840947e-04
2017-01-01T14:38:40.000   2.725716526074143e+04  -3.216659063939233e+04  -5.087499016821787e+00   2.345751905859683e+00   1.987972168636615e+00  -5.320347740392917e-04
2017-01-01T14:38:50.000   2.728061552925297e+04  -3.214670236628385e+04  -5.092818240940370e+00   2.344301675410237e+00   1.989682350468098e+00  -5.318100220052892e-04
2017-01-01T14:39:00.000   2.730405128920077e+04  -3.212679699666599e+04  -5.098135216112210e+00   2.342850197940062e+00   1.991391474286196e+00  -5.315849857708985e-04
2017-01-01T14:39:10.000   2.732747252838552e+04  -3.210687454089773e+04  -5.103449939556310e+00   2.341397474204445e+00   1.993099539200980e+00  -5.313596654242939e-04
2017-01-01T14:39:20.000   2.735087923432212e+04  -3.208693500959397e+04  -5.108762408426068e+00   2.339943504977338e+00   1.994806544301674e+00  -5.311340610565927e-04
2017-01-01T14:39:30.000   2.737427139454991e+04  -3.206697841336512e+04  -5.114072619879561e+00   2.338488291032363e+00   1.996512488679285e+00  -5.309081727589032e-04
2017-01-01T14:39:40.000   2.739764899656333e+04  -3.204700476287496e+04  -5.119380571063857e+00   2.337031833147038e+00   1.998217371421553e+00  -5.306820006229846e-04
2017-01-01T14:39:50.000   2.742101202783177e+04  -3.202701406882606e+04  -5.124686259119419e+00   2.335574132101707e+00   1.999921191614382e+00  -5.304555447410769e-04
